ORBCOMM FM05            
1 25117U 97084F   25046.59038987  .00003093  00000+0  91534-3 0  9999
2 25117  45.0129 231.6069 0001014 301.6548  58.4204 14.45179710423011
ORBCOMM FM06            
1 25118U 97084G   25046.60908421  .00003311  00000+0  97357-3 0  9993
2 25118  45.0121 231.3976 0000352 216.5982 220.1533 14.45344658423937
ORBCOMM FM07            
1 25119U 97084H   25046.53659961  .00003390  00000+0  99722-3 0  9993
2 25119  45.0118 232.4953 0001800 296.9085  63.1582 14.45277679423911
ORBCOMM FM03            
1 25158U 98007B   25046.49075979  .00002086  00000+0  78452-3 0  9996
2 25158 107.9701 245.6827 0043506 102.4893 258.1119 14.34003005406598
ORBCOMM FM04            
1 25159U 98007C   25046.49657713  .00002141  00000+0  80127-3 0  9993
2 25159 107.9687 248.8332 0039205  99.7952 260.7618 14.34267049406776
ORBCOMM FM17            
1 25413U 98046A   25046.48924312  .00001745  00000+0  66070-3 0  9990
2 25413  44.9942 111.7992 0003886 287.8528  72.1895 14.34659271385699
ORBCOMM FM18            
1 25414U 98046B   25046.38130258  .00002844  00000+0  97910-3 0  9996
2 25414  44.9937  32.8917 0005221   1.5379 358.5485 14.37940105386716
ORBCOMM FM19            
1 25415U 98046C   25046.12026025  .00002826  00000+0  97674-3 0  9992
2 25415  44.9945  35.9365 0004423 347.6052 100.3501 14.37749628386632
